{"type": "FeatureCollection", "features": [ {"type": "Feature", "properties": {"norad_id": 33153, "name": "INTELSAT 25 (IS-25)", "group": "intelsat", "lat": 1.7074565762009584, "lon": 132.50312918065706, "alt_km": 35802.159952441136, "timestamp": "2025-12-09T05:43:20.395627+00:00", "meta": {"OBJECT_NAME": "INTELSAT 25 (IS-25)", "OBJECT_ID": "2008-034A", "EPOCH": "2025-12-08T18:35:24.691776", "MEAN_MOTION": 1.00270394, "ECCENTRICITY": 0.0005411, "INCLINATION": 2.2174, "RA_OF_ASC_NODE": 82.6898, "ARG_OF_PERICENTER": 183.7497, "MEAN_ANOMALY": 58.6939, "EPHEMERIS_TYPE": 0, "CLASSIFICATION_TYPE": "U", "NORAD_CAT_ID": 33153, "ELEMENT_SET_NO": 999, "REV_AT_EPOCH": 6378, "BSTAR": 0, "MEAN_MOTION_DOT": -2.22e-06, "MEAN_MOTION_DDOT": 0}, "tle": {"line1": "1 33153U 08034A   25342.77459134 -.00000222  00000+0  00000+0 0  9991", "line2": "2 33153   2.2174  82.6898 0005411 183.7497  58.6939  1.00270394 63784"}}, "geometry": {"type": "Point", "coordinates": [132.50312918065706, 1.7074565762009584]}}, {"type": "Feature", "properties": {"norad_id": 33376, "name": "GALAXY 19 (G-19)", "group": "intelsat", "lat": 0.0318475523719512, "lon": 67.07289480285839, "alt_km": 35799.778218223815, "timestamp": "2025-12-09T05:43:20.395640+00:00", "meta": {"OBJECT_NAME": "GALAXY 19 (G-19)", "OBJECT_ID": "2008-045A", "EPOCH": "2025-12-08T12:23:15.078336", "MEAN_MOTION": 1.00269772, "ECCENTRICITY": 0.00033922, "INCLINATION": 0.0166, "RA_OF_ASC_NODE": 308.7127, "ARG_OF_PERICENTER": 322.4993, "MEAN_ANOMALY": 255.1198, "EPHEMERIS_TYPE": 0, "CLASSIFICATION_TYPE": "U", "NORAD_CAT_ID": 33376, "ELEMENT_SET_NO": 999, "REV_AT_EPOCH": 6299, "BSTAR": 0, "MEAN_MOTION_DOT": -1.37e-06, "MEAN_MOTION_DDOT": 0}, "tle": {"line1": "1 33376U 08045A   25342.51614674 -.00000137  00000+0  00000+0 0  9999", "line2": "2 33376   0.0166 308.7127 0003392 322.4993 255.1198  1.00269772 62995"}}, "geometry": {"type": "Point", "coordinates": [67.07289480285839, 0.0318475523719512]}}, {"type": "Feature", "properties": {"norad_id": 35493, "name": "FM-5", "group": "intelsat", "lat": 0.024745417880483404, "lon": 77.9147342842223, "alt_km": 35786.97841620125, "timestamp": "2025-12-09T05:43:20.395652+00:00", "meta": {"OBJECT_NAME": "FM-5", "OBJECT_ID": "2009-034A", "EPOCH": "2025-12-08T14:54:22.263264", "MEAN_MOTION": 1.00271335, "ECCENTRICITY": 8.36e-05, "INCLINATION": 0.0214, "RA_OF_ASC_NODE": 286.8023, "ARG_OF_PERICENTER": 253.0449, "MEAN_ANOMALY": 35.2309, "EPHEMERIS_TYPE": 0, "CLASSIFICATION_TYPE": "U", "NORAD_CAT_ID": 35493, "ELEMENT_SET_NO": 999, "REV_AT_EPOCH": 4473, "BSTAR": 0, "MEAN_MOTION_DOT": -1.98e-06, "MEAN_MOTION_DDOT": 0}, "tle": {"line1": "1 35493U 09034A   25342.62109101 -.00000198  00000+0  00000+0 0  9993", "line2": "2 35493   0.0214 286.8023 0000836 253.0449  35.2309  1.00271335 44738"}}, "geometry": {"type": "Point", "coordinates": [77.9147342842223, 0.024745417880483404]}}, {"type": "Feature", "properties": {"norad_id": 36097, "name": "INTELSAT 14 (IS-14)", "group": "intelsat", "lat": 0.019259656902177322, "lon": 119.05293798696424, "alt_km": 35795.841950914284, "timestamp": "2025-12-09T05:43:20.395664+00:00", "meta": {"OBJECT_NAME": "INTELSAT 14 (IS-14)", "OBJECT_ID": "2009-064A", "EPOCH": "2025-12-08T18:31:32.561760", "MEAN_MOTION": 1.00270539, "ECCENTRICITY": 0.0002689, "INCLINATION": 0.0101, "RA_OF_ASC_NODE": 334.8756, "ARG_OF_PERICENTER": 289.5167, "MEAN_ANOMALY": 46.275, "EPHEMERIS_TYPE": 0, "CLASSIFICATION_TYPE": "U", "NORAD_CAT_ID": 36097, "ELEMENT_SET_NO": 999, "REV_AT_EPOCH": 5869, "BSTAR": 0, "MEAN_MOTION_DOT": -2.71e-06, "MEAN_MOTION_DDOT": 0}, "tle": {"line1": "1 36097U 09064A   25342.77190465 -.00000271  00000+0  00000+0 0  9998", "line2": "2 36097   0.0101 334.8756 0002689 289.5167  46.2750  1.00270539 58697"}}, "geometry": {"type": "Point", "coordinates": [119.05293798696424, 0.019259656902177322]}}, {"type": "Feature", "properties": {"norad_id": 36106, "name": "INTELSAT 15 (IS-15)", "group": "intelsat", "lat": -0.024113782255857193, "lon": -110.79413081716316, "alt_km": 35776.44308775949, "timestamp": "2025-12-09T05:43:20.395676+00:00", "meta": {"OBJECT_NAME": "INTELSAT 15 (IS-15)", "OBJECT_ID": "2009-067A", "EPOCH": "2025-12-08T19:08:43.999008", "MEAN_MOTION": 1.00270204, "ECCENTRICITY": 0.0002466, "INCLINATION": 0.0103, "RA_OF_ASC_NODE": 23.2604, "ARG_OF_PERICENTER": 240.4427, "MEAN_ANOMALY": 186.43, "EPHEMERIS_TYPE": 0, "CLASSIFICATION_TYPE": "U", "NORAD_CAT_ID": 36106, "ELEMENT_SET_NO": 999, "REV_AT_EPOCH": 3932, "BSTAR": 0, "MEAN_MOTION_DOT": -1.83e-06, "MEAN_MOTION_DDOT": 0}, "tle": {"line1": "1 36106U 09067A   25342.79773147 -.00000183  00000+0  00000+0 0  9990", "line2": "2 36106   0.0103  23.2604 0002466 240.4427 186.4300  1.00270204 39325"}}, "geometry": {"type": "Point", "coordinates": [-110.79413081716316, -0.024113782255857193]}}, {"type": "Feature", "properties": {"norad_id": 36131, "name": "DIRECTV 12", "group": "intelsat", "lat": -0.0015682897806686656, "lon": 61.34466952261716, "alt_km": 35786.21306394477, "timestamp": "2025-12-09T05:43:20.395689+00:00", "meta": {"OBJECT_NAME": "DIRECTV 12", "OBJECT_ID": "2009-075A", "EPOCH": "2025-12-08T14:49:37.716096", "MEAN_MOTION": 1.00270561, "ECCENTRICITY": 3.69e-05, "INCLINATION": 0.0408, "RA_OF_ASC_NODE": 139.5416, "ARG_OF_PERICENTER": 200.0497, "MEAN_ANOMALY": 217.7159, "EPHEMERIS_TYPE": 0, "CLASSIFICATION_TYPE": "U", "NORAD_CAT_ID": 36131, "ELEMENT_SET_NO": 999, "REV_AT_EPOCH": 4464, "BSTAR": 0, "MEAN_MOTION_DOT": -1.01e-06, "MEAN_MOTION_DDOT": 0}, "tle": {"line1": "1 36131U 09075A   25342.61779764 -.00000101  00000+0  00000+0 0  9999", "line2": "2 36131   0.0408 139.5416 0000369 200.0497 217.7159  1.00270561 44649"}}, "geometry": {"type": "Point", "coordinates": [61.34466952261716, -0.0015682897806686656]}}, {"type": "Feature", "properties": {"norad_id": 36397, "name": "INTELSAT 16 (IS-16)", "group": "intelsat", "lat": 0.026301488375156248, "lon": 87.86023686493802, "alt_km": 35796.22058012209, "timestamp": "2025-12-09T05:43:20.395702+00:00", "meta": {"OBJECT_NAME": "INTELSAT 16 (IS-16)", "OBJECT_ID": "2010-006A", "EPOCH": "2025-12-08T18:22:40.912320", "MEAN_MOTION": 1.00270402, "ECCENTRICITY": 0.0002308, "INCLINATION": 0.017, "RA_OF_ASC_NODE": 306.1127, "ARG_OF_PERICENTER": 315.1568, "MEAN_ANOMALY": 15.9695, "EPHEMERIS_TYPE": 0, "CLASSIFICATION_TYPE": "U", "NORAD_CAT_ID": 36397, "ELEMENT_SET_NO": 999, "REV_AT_EPOCH": 5774, "BSTAR": 0, "MEAN_MOTION_DOT": -2.42e-06, "MEAN_MOTION_DDOT": 0}, "tle": {"line1": "1 36397U 10006A   25342.76575130 -.00000242  00000+0  00000+0 0  9992", "line2": "2 36397   0.0170 306.1127 0002308 315.1568  15.9695  1.00270402 57744"}}, "geometry": {"type": "Point", "coordinates": [87.86023686493802, 0.026301488375156248]}}, {"type": "Feature", "properties": {"norad_id": 37185, "name": "XM-5", "group": "intelsat", "lat": 0.05986508991486207, "lon": 48.85291290371776, "alt_km": 35789.14664474639, "timestamp": "2025-12-09T05:43:20.395714+00:00", "meta": {"OBJECT_NAME": "XM-5", "OBJECT_ID": "2010-053A", "EPOCH": "2025-12-08T16:28:50.714112", "MEAN_MOTION": 1.00269412, "ECCENTRICITY": 0.0001794, "INCLINATION": 0.0644, "RA_OF_ASC_NODE": 272.5939, "ARG_OF_PERICENTER": 245.1289, "MEAN_ANOMALY": 51.9903, "EPHEMERIS_TYPE": 0, "CLASSIFICATION_TYPE": "U", "NORAD_CAT_ID": 37185, "ELEMENT_SET_NO": 999, "REV_AT_EPOCH": 5557, "BSTAR": 0, "MEAN_MOTION_DOT": -2.1e-07, "MEAN_MOTION_DDOT": 0}, "tle": {"line1": "1 37185U 10053A   25342.68669808 -.00000021  00000+0  00000+0 0  9992", "line2": "2 37185   0.0644 272.5939 0001794 245.1289  51.9903  1.00269412 55573"}}, "geometry": {"type": "Point", "coordinates": [48.85291290371776, 0.05986508991486207]}}, {"type": "Feature", "properties": {"norad_id": 37238, "name": "INTELSAT 17 (IS-17)", "group": "intelsat", "lat": -0.025508421121851206, "lon": -129.93894155314507, "alt_km": 35776.79699375677, "timestamp": "2025-12-09T05:43:20.395726+00:00", "meta": {"OBJECT_NAME": "INTELSAT 17 (IS-17)", "OBJECT_ID": "2010-065B", "EPOCH": "2025-12-08T19:03:07.038144", "MEAN_MOTION": 1.00272316, "ECCENTRICITY": 0.0002456, "INCLINATION": 0.0167, "RA_OF_ASC_NODE": 281.329, "ARG_OF_PERICENTER": 337.4542, "MEAN_ANOMALY": 170.8003, "EPHEMERIS_TYPE": 0, "CLASSIFICATION_TYPE": "U", "NORAD_CAT_ID": 37238, "ELEMENT_SET_NO": 999, "REV_AT_EPOCH": 5133, "BSTAR": 0, "MEAN_MOTION_DOT": 0, "MEAN_MOTION_DDOT": 0}, "tle": {"line1": "1 37238U 10065B   25342.79383146  .00000000  00000+0  00000+0 0  9990", "line2": "2 37238   0.0167 281.3290 0002456 337.4542 170.8003  1.00272316 51332"}}, "geometry": {"type": "Point", "coordinates": [-129.93894155314507, -0.025508421121851206]}}, {"type": "Feature", "properties": {"norad_id": 37392, "name": "INTELSAT 28 (IS-28)", "group": "intelsat", "lat": 0.9771545851117482, "lon": 132.321594690128, "alt_km": 35796.86554798203, "timestamp": "2025-12-09T05:43:20.395738+00:00", "meta": {"OBJECT_NAME": "INTELSAT 28 (IS-28)", "OBJECT_ID": "2011-016A", "EPOCH": "2025-12-08T18:35:24.691776", "MEAN_MOTION": 1.00272424, "ECCENTRICITY": 0.0004006, "INCLINATION": 1.3143, "RA_OF_ASC_NODE": 85.1028, "ARG_OF_PERICENTER": 177.9136, "MEAN_ANOMALY": 61.9095, "EPHEMERIS_TYPE": 0, "CLASSIFICATION_TYPE": "U", "NORAD_CAT_ID": 37392, "ELEMENT_SET_NO": 999, "REV_AT_EPOCH": 5137, "BSTAR": 0, "MEAN_MOTION_DOT": -2.23e-06, "MEAN_MOTION_DDOT": 0}, "tle": {"line1": "1 37392U 11016A   25342.77459134 -.00000223  00000+0  00000+0 0  9995", "line2": "2 37392   1.3143  85.1028 0004006 177.9136  61.9095  1.00272424 51374"}}, "geometry": {"type": "Point", "coordinates": [132.321594690128, 0.9771545851117482]}}]}